#aV2008  6  3  0  0   .00000000      96 DD+AD WGS84 FIT  NGA
## 1482 172800.00000000   900.00000000 54620  .0000000000000
+   31     2  3  4  5  6  7  8  9 10 11 12 13 14 15 16 17 18
+         19 20 21 22 23 24 25 26 27 28 29 30 31 32  0  0  0
+          0  0  0  0  0  0  0  0  0  0  0  0  0  0  0  0  0
+          0  0  0  0  0  0  0  0  0  0  0  0  0  0  0  0  0
+          0  0  0  0  0  0  0  0  0  0  0  0  0  0  0  0  0
++         0  0  0  0  0  0  0  0  0  0  0  0  0  0  0  0  0
++         0  0  0  0  0  0  0  0  0  0  0  0  0  0  0  0  0
++         0  0  0  0  0  0  0  0  0  0  0  0  0  0  0  0  0
++         0  0  0  0  0  0  0  0  0  0  0  0  0  0  0  0  0
++         0  0  0  0  0  0  0  0  0  0  0  0  0  0  0  0  0
%c cc cc ccc ccc cccc cccc cccc cccc ccccc ccccc ccccc ccccc
%c cc cc ccc ccc cccc cccc cccc cccc ccccc ccccc ccccc ccccc
%f  0.0000000  0.000000000  0.00000000000  0.000000000000000
%f  0.0000000  0.000000000  0.00000000000  0.000000000000000
%i    0    0    0    0      0      0      0      0         0
%i    0    0    0    0      0      0      0      0         0
/*      NGA, ST. LOUIS,MO.                                  
/*   EPHEMERIS COMPUTED FROM  3 DAYS OF DATA                
/* CCCCCCCCCCCCCCCCCCCCCCCCCCCCCCCCCCCCCCCCCCCCCCCCCCCCCCCCC
/* CCCCCCCCCCCCCCCCCCCCCCCCCCCCCCCCCCCCCCCCCCCCCCCCCCCCCCCCC
*  2008  6  3 18 15   .00000000                                                 
P  2  13302.858994  22843.299728  -4280.912286    205.956634                    
V  2   -654.303230   5955.534817  30521.399575       .006474                    
P  3 -18884.721448 -11681.448535 -15080.575452    237.167604                    
V  3  18706.957677  -2159.704985 -21776.438028       .051707                    
P  4   5403.385182  25019.176771   6251.066369    -82.369693                    
V  4  -6396.424824  -6194.012440  30212.568468      -.089137                    
P  5  19128.463723 -10763.967475  14580.191564   -399.842696                    
V  5  -7801.435212  17627.618320  22968.292945       .086131                    
P  6 -13198.912799 -14362.890600 -17856.685777    141.375458                    
V  6  23202.755311   -157.691470 -16873.289519       .073676                    
P  7 -11503.557830  10907.932964 -21328.524824    -28.348042                    
V  7 -11086.442101 -24649.785896  -6705.339479       .080007                    
P  8  -3328.107861  21124.399941 -15517.290815   -155.848559                    
V  8  -8357.000525 -17924.517553 -23188.176193      -.016104                    
P  9  17038.128182   6003.884431  18895.274837    127.413205                    
V  9   9533.473648  23432.785712 -15376.645787       .016979                    
P 10   9215.257561  12542.668497 -21623.386982     -1.976505                    
V 10 -17339.806451  20919.523932   5094.894183      -.003549                    
P 11 -18844.428063  -1048.280401  18639.440867     25.024425                    
V 11 -11845.843797 -21183.116936 -12727.677223      -.003612                    
P 12  19235.928065  -5128.059996  17622.838804   -358.846038                    
V 12 -12117.761486  18709.440447  18861.246726       .002723                    
P 13 -19767.513089   7313.086390 -16268.797962    258.233345                    
V 13 -19884.013652  -4587.585889  22279.817608       .016716                    
P 14   2881.299964 -14365.303459  22250.330398   -259.535825                    
V 14  27594.192878   4343.335312   -869.151021       .042583                    
P 15  24815.834549   7165.224019  -6189.069044   -120.981187                    
V 15  -8150.669755   1910.988507 -30357.482245      -.059035                    
P 16  -4534.498018 -16680.358584 -20034.104594    122.674475                    
V 16  16737.164291 -19466.263106  12573.257170      -.014898                    
P 17  -2502.930845  15069.699707  21768.380202     38.756696                    
V 17 -27279.303316  -3836.629970   -639.926653      -.001487                    
P 18  17858.570040 -19215.146410  -2425.304489   -171.294267                    
V 18    644.694669   4820.352098 -31499.799544       .040069                    
P 19 -24796.112409  -8393.589754  -4962.812621     31.263488                    
V 19   6784.922386  -1452.441371 -30711.775818       .007700                    
P 20 -19654.695770   7226.726762  16195.204898    112.927770                    
V 20  10481.089709 -18144.223049  20704.153608      -.008370                    
P 21   8811.643606 -15825.784698 -19031.959022     62.370546                    
V 21  10928.821414  22404.209731 -14049.981060      -.011529                    
P 22   9079.539145 -22760.089834  10329.579144    211.381930                    
V 22  10471.915511  -8142.063673 -27606.743886       .000921                    
P 23 -26173.791942    323.238592  -5302.433168    357.373056                    
V 23  -6258.910602  -3020.134751  30877.765347       .020862                    
P 24  15411.926639  -1989.880576 -21348.223458     99.005600                    
V 24   8926.264175  26077.414594   4254.615573       .030021                    
P 25 -14637.156015   4091.072795 -21408.386038   -197.225695                    
V 25 -12930.553985 -24890.170537   4192.383265      -.290015                    
P 26  22658.131883  10602.216575 -10191.357250    266.761705                    
V 26 -12016.239983   -972.103453 -28613.856298       .076542                    
P 27  -9099.710214  13225.275136 -20463.692413    193.017201                    
V 27 -13086.848954 -24250.295908  -9679.188025       .028494                    
P 28 -10154.375723  22775.900240   9024.611778    -19.679062                    
V 28  -8956.960293   6951.970148 -29182.605155      -.004556                    
P 29  22248.303269  -6030.847377 -13047.129584    -42.704521                    
V 29  16271.745603   4726.058581  25355.226460       .002216                    
P 30  18702.266441 -16793.596396   8081.935991     79.472781                    
V 30  -3574.290149  10628.800649  29234.544184       .016907                    
P 31  -6786.818571 -25110.531452   5277.449839    -22.170859                    
V 31   4904.555508   4927.971999  31049.175198      -.013489                    
P 32 -13759.579221  -7233.218706  21958.316826    293.438952                    
V 32  17614.417399 -20258.695253   4622.208914       .046441                    
EOF
